GOES 18
1 51850U 22021A   26185.51086661  .00000109  00000+0  00000+0 0  9999
2 51850   0.0415 221.7763 0000592 303.1764 164.4734  1.00270988  6762
